{
    "links": {
        "self": "http://www.neowsapp.com/rest/v1/neo/3838002?api_key=iIulBulltgU6a56xZRHN4H3l9WmuAYTsLGpBGhQ2"
    },
    "id": "3838002",
    "neo_reference_id": "3838002",
    "name": "(2019 AT14)",
    "designation": "2019 AT14",
    "nasa_jpl_url": "http://ssd.jpl.nasa.gov/sbdb.cgi?sstr=3838002",
    "absolute_magnitude_h": 23.964,
    "estimated_diameter": {
        "kilometers": {
            "estimated_diameter_min": 0.0428306807,
            "estimated_diameter_max": 0.0957723136
        },
        "meters": {
            "estimated_diameter_min": 42.8306806994,
            "estimated_diameter_max": 95.7723135665
        },
        "miles": {
            "estimated_diameter_min": 0.0266137429,
            "estimated_diameter_max": 0.0595101383
        },
        "feet": {
            "estimated_diameter_min": 140.5206104659,
            "estimated_diameter_max": 314.2136372416
        }
    },
    "is_potentially_hazardous_asteroid": false,
    "close_approach_data": [
        {
            "close_approach_date": "1944-11-20",
            "close_approach_date_full": "1944-Nov-20 12:29",
            "epoch_date_close_approach": -792502260000,
            "relative_velocity": {
                "kilometers_per_second": "13.4126337521",
                "kilometers_per_hour": "48285.481507592",
                "miles_per_hour": "30002.7204400924"
            },
            "miss_distance": {
                "astronomical": "0.2384550288",
                "lunar": "92.7590062032",
                "kilometers": "35672364.399268656",
                "miles": "22165779.3968572128"
            },
            "orbiting_body": "Earth"
        },
        {
            "close_approach_date": "2018-12-22",
            "close_approach_date_full": "2018-Dec-22 13:56",
            "epoch_date_close_approach": 1545486960000,
            "relative_velocity": {
                "kilometers_per_second": "17.2541114333",
                "kilometers_per_hour": "62114.8011597864",
                "miles_per_hour": "38595.7218650906"
            },
            "miss_distance": {
                "astronomical": "0.0715553513",
                "lunar": "27.8350316557",
                "kilometers": "10704528.141581731",
                "miles": "6651485.3537046478"
            },
            "orbiting_body": "Earth"
        }
    ],
    "orbital_data": {
        "orbit_id": "1",
        "orbit_determination_date": "2019-01-29 07:36:25",
        "first_observation_date": "2019-01-11",
        "last_observation_date": "2019-01-12",
        "data_arc_in_days": 1,
        "observations_used": 6,
        "orbit_uncertainty": "9",
        "minimum_orbit_intersection": ".0709168",
        "jupiter_tisserand_invariant": "3.942",
        "epoch_osculation": "2458495.5",
        "eccentricity": ".6077061805096459",
        "semi_major_axis": "1.71337974924148",
        "inclination": "6.896769889290032",
        "ascending_node_longitude": "55.14665709673559",
        "orbital_period": "819.1791146793818",
        "perihelion_distance": ".6721482860673655",
        "perihelion_argument": "317.1441449703083",
        "aphelion_distance": "2.754611212415595",
        "perihelion_time": "2458429.700120027946",
        "mean_anomaly": "28.91670010314003",
        "mean_motion": ".4394643290446928",
        "equinox": "J2000",
        "orbit_class": {
            "orbit_class_type": "APO",
            "orbit_class_description": "Near-Earth asteroid orbits which cross the Earth’s orbit similar to that of 1862 Apollo",
            "orbit_class_range": "a (semi-major axis) > 1.0 AU; q (perihelion) < 1.017 AU"
        }
    },
    "is_sentry_object": false
}